TEVEL2-3                
1 63218U 25052J   26068.64540225  .00020365  00000+0  69446-3 0  9991
2 63218  97.3994 324.7775 0004761 105.7353 254.4413 15.30377031 54855
STARLINK-35589          
1 66426U 25259E   26068.57538554  .00024330  00000+0  89058-3 0  9995
2 66426  42.9999 275.0108 0001843 261.7628  98.3015 15.27585849 19470
